STARLINK-11190 [DTC]    
1 60911U 24154J   25273.17678507 -.00000114  00000+0  39178-5 0  9992
2 60911  53.1581 202.5622 0001073 128.3436 231.7679 15.69713996 63290
STARLINK-11225 [DTC]    
1 60912U 24154K   25273.10820587 -.00003828  00000+0 -26717-4 0  9993
2 60912  53.1596 202.8440 0000870  76.7220 283.3895 15.69743300 63283
STARLINK-11273 [DTC]    
1 60913U 24154L   25273.03962268  .00002515  00000+0  25586-4 0  9992
2 60913  53.1589 203.1217 0001181  66.7194 293.3948 15.69732066 63273
STARLINK-11248 [DTC]    
1 60914U 24154M   25273.22573014  .00001145  00000+0  14292-4 0  9991
2 60914  53.1576 202.1511 0000793  86.8172 273.2936 15.69726202 63306
STARLINK-11271 [DTC]    
1 60915U 24154N   25273.22084939 -.00002485  00000+0 -15668-4 0  9993
2 60915  53.1601 202.1160 0001173  98.2588 261.8563 15.69693325 63305
STARLINK-32371          
1 60916U 24154P   25272.54981882  .00001328  00000+0  56972-4 0  9997
2 60916  53.1593 312.3282 0001035  85.0886 275.0233 15.30193741 61660
STARLINK-32369          
1 60917U 24154Q   25272.33488463  .00002922  00000+0  11078-3 0  9990
2 60917  53.1582 313.1216 0001012  63.0989 297.0115 15.30187687 61632
STARLINK-32317          
1 60918U 24154R   25272.37920975  .00001373  00000+0  58501-4 0  9996
2 60918  53.1620 313.3997 0001574  78.7156 281.4022 15.30185178 61633
STARLINK-32367          
1 60919U 24154S   25272.51921339  .00001381  00000+0  58749-4 0  9991
2 60919  53.1602 312.1386 0001217  83.2753 276.8387 15.30193257 61663
STARLINK-32345          
1 60920U 24154T   25272.38027359 -.00000450  00000+0 -30634-5 0  9999
2 60920  53.1618 313.4044 0001675  79.7340 280.3850 15.30179441 61649
STARLINK-32356          
1 60921U 24154U   25273.12815326  .00010219  00000+0  35657-3 0  9992
2 60921  53.1592 309.5361 0001496 111.4378 248.6782 15.30208645 61768
STARLINK-32274          
1 60922U 24154V   25272.36126150  .00000113  00000+0  15939-4 0  9992
2 60922  53.1615 313.2792 0001415 126.7609 233.3522 15.30192161 61647
STARLINK-32373          
1 60923U 24154W   25272.43607418  .00000586  00000+0  31926-4 0  9990
2 60923  53.1611 313.0348 0001365 123.4065 236.7066 15.30191193 61658
STARLINK-11239 [DTC]    
1 60924U 24155A   25272.77278478 -.00000339  00000+0  20602-5 0  9996
2 60924  53.1586  54.8818 0000858  75.3581 284.7532 15.69709112 63129
STARLINK-11245 [DTC]    
1 60925U 24155B   25272.82171720  .00002616  00000+0  26414-4 0  9990
2 60925  53.1589  54.4737 0001163  75.4919 284.6228 15.69736314 63131
STARLINK-11244 [DTC]    
1 60926U 24155C   25272.68457103  .00003150  00000+0  30821-4 0  9998
2 60926  53.1590  55.0281 0001101  82.0605 278.0538 15.69732771 63160
