[{"OBJECT_NAME":"STARLINK-11190 [DTC]","OBJECT_ID":"2024-154J","EPOCH":"2025-09-30T04:14:34.230048","MEAN_MOTION":15.69713996,"ECCENTRICITY":0.0001073,"INCLINATION":53.1581,"RA_OF_ASC_NODE":202.5622,"ARG_OF_PERICENTER":128.3436,"MEAN_ANOMALY":231.7679,"EPHEMERIS_TYPE":0,"CLASSIFICATION_TYPE":"U","NORAD_CAT_ID":60911,"ELEMENT_SET_NO":999,"REV_AT_EPOCH":6329,"BSTAR":3.91784e-6,"MEAN_MOTION_DOT":-1.14e-6,"MEAN_MOTION_DDOT":0},{"OBJECT_NAME":"STARLINK-11225 [DTC]","OBJECT_ID":"2024-154K","EPOCH":"2025-09-30T02:35:48.987168","MEAN_MOTION":15.697433,"ECCENTRICITY":8.702e-5,"INCLINATION":53.1596,"RA_OF_ASC_NODE":202.844,"ARG_OF_PERICENTER":76.722,"MEAN_ANOMALY":283.3895,"EPHEMERIS_TYPE":0,"CLASSIFICATION_TYPE":"U","NORAD_CAT_ID":60912,"ELEMENT_SET_NO":999,"REV_AT_EPOCH":6328,"BSTAR":-2.6717157e-5,"MEAN_MOTION_DOT":-3.828e-5,"MEAN_MOTION_DDOT":0},{"OBJECT_NAME":"STARLINK-11273 [DTC]","OBJECT_ID":"2024-154L","EPOCH":"2025-09-30T00:57:03.399552","MEAN_MOTION":15.69732066,"ECCENTRICITY":0.00011812,"INCLINATION":53.1589,"RA_OF_ASC_NODE":203.1217,"ARG_OF_PERICENTER":66.7194,"MEAN_ANOMALY":293.3948,"EPHEMERIS_TYPE":0,"CLASSIFICATION_TYPE":"U","NORAD_CAT_ID":60913,"ELEMENT_SET_NO":999,"REV_AT_EPOCH":6327,"BSTAR":2.558625e-5,"MEAN_MOTION_DOT":2.515e-5,"MEAN_MOTION_DDOT":0},{"OBJECT_NAME":"STARLINK-11248 [DTC]","OBJECT_ID":"2024-154M","EPOCH":"2025-09-30T05:25:03.084096","MEAN_MOTION":15.69726202,"ECCENTRICITY":7.931e-5,"INCLINATION":53.1576,"RA_OF_ASC_NODE":202.1511,"ARG_OF_PERICENTER":86.8172,"MEAN_ANOMALY":273.2936,"EPHEMERIS_TYPE":0,"CLASSIFICATION_TYPE":"U","NORAD_CAT_ID":60914,"ELEMENT_SET_NO":999,"REV_AT_EPOCH":6330,"BSTAR":1.4291848e-5,"MEAN_MOTION_DOT":1.145e-5,"MEAN_MOTION_DDOT":0},{"OBJECT_NAME":"STARLINK-11271 [DTC]","OBJECT_ID":"2024-154N","EPOCH":"2025-09-30T05:18:01.387296","MEAN_MOTION":15.69693325,"ECCENTRICITY":0.00011735,"INCLINATION":53.1601,"RA_OF_ASC_NODE":202.116,"ARG_OF_PERICENTER":98.2588,"MEAN_ANOMALY":261.8563,"EPHEMERIS_TYPE":0,"CLASSIFICATION_TYPE":"U","NORAD_CAT_ID":60915,"ELEMENT_SET_NO":999,"REV_AT_EPOCH":6330,"BSTAR":-1.5668421e-5,"MEAN_MOTION_DOT":-2.485e-5,"MEAN_MOTION_DDOT":0},{"OBJECT_NAME":"STARLINK-32371","OBJECT_ID":"2024-154P","EPOCH":"2025-09-29T13:11:44.346048","MEAN_MOTION":15.30193741,"ECCENTRICITY":0.00010358,"INCLINATION":53.1593,"RA_OF_ASC_NODE":312.3282,"ARG_OF_PERICENTER":85.0886,"MEAN_ANOMALY":275.0233,"EPHEMERIS_TYPE":0,"CLASSIFICATION_TYPE":"U","NORAD_CAT_ID":60916,"ELEMENT_SET_NO":999,"REV_AT_EPOCH":6166,"BSTAR":5.6971772e-5,"MEAN_MOTION_DOT":1.328e-5,"MEAN_MOTION_DDOT":0},{"OBJECT_NAME":"STARLINK-32369","OBJECT_ID":"2024-154Q","EPOCH":"2025-09-29T08:02:14.032032","MEAN_MOTION":15.30187687,"ECCENTRICITY":0.00010123,"INCLINATION":53.1582,"RA_OF_ASC_NODE":313.1216,"ARG_OF_PERICENTER":63.0989,"MEAN_ANOMALY":297.0115,"EPHEMERIS_TYPE":0,"CLASSIFICATION_TYPE":"U","NORAD_CAT_ID":60917,"ELEMENT_SET_NO":999,"REV_AT_EPOCH":6163,"BSTAR":0.00011077795,"MEAN_MOTION_DOT":2.922e-5,"MEAN_MOTION_DDOT":0},{"OBJECT_NAME":"STARLINK-32317","OBJECT_ID":"2024-154R","EPOCH":"2025-09-29T09:06:03.722400","MEAN_MOTION":15.30185178,"ECCENTRICITY":0.00015749,"INCLINATION":53.162,"RA_OF_ASC_NODE":313.3997,"ARG_OF_PERICENTER":78.7156,"MEAN_ANOMALY":281.4022,"EPHEMERIS_TYPE":0,"CLASSIFICATION_TYPE":"U","NORAD_CAT_ID":60918,"ELEMENT_SET_NO":999,"REV_AT_EPOCH":6163,"BSTAR":5.8501313e-5,"MEAN_MOTION_DOT":1.373e-5,"MEAN_MOTION_DDOT":0},{"OBJECT_NAME":"STARLINK-32367","OBJECT_ID":"2024-154S","EPOCH":"2025-09-29T12:27:40.036896","MEAN_MOTION":15.30193257,"ECCENTRICITY":0.00012171,"INCLINATION":53.1602,"RA_OF_ASC_NODE":312.1386,"ARG_OF_PERICENTER":83.2753,"MEAN_ANOMALY":276.8387,"EPHEMERIS_TYPE":0,"CLASSIFICATION_TYPE":"U","NORAD_CAT_ID":60919,"ELEMENT_SET_NO":999,"REV_AT_EPOCH":6166,"BSTAR":5.8749083e-5,"MEAN_MOTION_DOT":1.381e-5,"MEAN_MOTION_DDOT":0},{"OBJECT_NAME":"STARLINK-32345","OBJECT_ID":"2024-154T","EPOCH":"2025-09-29T09:07:35.638176","MEAN_MOTION":15.30179441,"ECCENTRICITY":0.0001675,"INCLINATION":53.1618,"RA_OF_ASC_NODE":313.4044,"ARG_OF_PERICENTER":79.734,"MEAN_ANOMALY":280.385,"EPHEMERIS_TYPE":0,"CLASSIFICATION_TYPE":"U","NORAD_CAT_ID":60920,"ELEMENT_SET_NO":999,"REV_AT_EPOCH":6164,"BSTAR":-3.063411e-6,"MEAN_MOTION_DOT":-4.5e-6,"MEAN_MOTION_DDOT":0},{"OBJECT_NAME":"STARLINK-32356","OBJECT_ID":"2024-154U","EPOCH":"2025-09-30T03:04:32.441664","MEAN_MOTION":15.30208645,"ECCENTRICITY":0.00014969,"INCLINATION":53.1592,"RA_OF_ASC_NODE":309.5361,"ARG_OF_PERICENTER":111.4378,"MEAN_ANOMALY":248.6782,"EPHEMERIS_TYPE":0,"CLASSIFICATION_TYPE":"U","NORAD_CAT_ID":60921,"ELEMENT_SET_NO":999,"REV_AT_EPOCH":6176,"BSTAR":0.00035657078,"MEAN_MOTION_DOT":0.00010219,"MEAN_MOTION_DDOT":0},{"OBJECT_NAME":"STARLINK-32274","OBJECT_ID":"2024-154V","EPOCH":"2025-09-29T08:40:12.993600","MEAN_MOTION":15.30192161,"ECCENTRICITY":0.00014159,"INCLINATION":53.1615,"RA_OF_ASC_NODE":313.2792,"ARG_OF_PERICENTER":126.7609,"MEAN_ANOMALY":233.3522,"EPHEMERIS_TYPE":0,"CLASSIFICATION_TYPE":"U","NORAD_CAT_ID":60922,"ELEMENT_SET_NO":999,"REV_AT_EPOCH":6164,"BSTAR":1.5938983e-5,"MEAN_MOTION_DOT":1.13e-6,"MEAN_MOTION_DDOT":0},{"OBJECT_NAME":"STARLINK-32373","OBJECT_ID":"2024-154W","EPOCH":"2025-09-29T10:27:56.809152","MEAN_MOTION":15.30191193,"ECCENTRICITY":0.00013651,"INCLINATION":53.1611,"RA_OF_ASC_NODE":313.0348,"ARG_OF_PERICENTER":123.4065,"MEAN_ANOMALY":236.7066,"EPHEMERIS_TYPE":0,"CLASSIFICATION_TYPE":"U","NORAD_CAT_ID":60923,"ELEMENT_SET_NO":999,"REV_AT_EPOCH":6165,"BSTAR":3.1926306e-5,"MEAN_MOTION_DOT":5.86e-6,"MEAN_MOTION_DDOT":0},{"OBJECT_NAME":"STARLINK-11239 [DTC]","OBJECT_ID":"2024-155A","EPOCH":"2025-09-29T18:32:48.604992","MEAN_MOTION":15.69709112,"ECCENTRICITY":8.581e-5,"INCLINATION":53.1586,"RA_OF_ASC_NODE":54.8818,"ARG_OF_PERICENTER":75.3581,"MEAN_ANOMALY":284.7532,"EPHEMERIS_TYPE":0,"CLASSIFICATION_TYPE":"U","NORAD_CAT_ID":60924,"ELEMENT_SET_NO":999,"REV_AT_EPOCH":6312,"BSTAR":2.06023e-6,"MEAN_MOTION_DOT":-3.39e-6,"MEAN_MOTION_DDOT":0},{"OBJECT_NAME":"STARLINK-11245 [DTC]","OBJECT_ID":"2024-155B","EPOCH":"2025-09-29T19:43:16.366080","MEAN_MOTION":15.69736314,"ECCENTRICITY":0.00011633,"INCLINATION":53.1589,"RA_OF_ASC_NODE":54.4737,"ARG_OF_PERICENTER":75.4919,"MEAN_ANOMALY":284.6228,"EPHEMERIS_TYPE":0,"CLASSIFICATION_TYPE":"U","NORAD_CAT_ID":60925,"ELEMENT_SET_NO":999,"REV_AT_EPOCH":6313,"BSTAR":2.6414328e-5,"MEAN_MOTION_DOT":2.616e-5,"MEAN_MOTION_DDOT":0},{"OBJECT_NAME":"STARLINK-11244 [DTC]","OBJECT_ID":"2024-155C","EPOCH":"2025-09-29T16:25:46.936992","MEAN_MOTION":15.69732771,"ECCENTRICITY":0.00011013,"INCLINATION":53.159,"RA_OF_ASC_NODE":55.0281,"ARG_OF_PERICENTER":82.0605,"MEAN_ANOMALY":278.0538,"EPHEMERIS_TYPE":0,"CLASSIFICATION_TYPE":"U","NORAD_CAT_ID":60926,"ELEMENT_SET_NO":999,"REV_AT_EPOCH":6316,"BSTAR":3.0820545e-5,"MEAN_MOTION_DOT":3.15e-5,"MEAN_MOTION_DDOT":0}]
